IRIDIUM 159             
1 43578U 18061K   25352.43600203  .00000161  00000+0  50308-4 0  9995
2 43578  86.3979 132.2870 0001974  90.8435 269.2987 14.34217344387479
IRIDIUM 180             
1 43922U 19002A   25352.57503462  .00000183  00000+0  58167-4 0  9993
2 43922  86.3964  69.1019 0001960  94.9692 265.1728 14.34218180363105
IRIDIUM 176             
1 43923U 19002B   25352.63677359  .00000788  00000+0  12109-3 0  9994
2 43923  86.6085  69.0458 0002332  95.8505 264.2978 14.72255938372680
IRIDIUM 168             
1 43924U 19002C   25352.63845650  .00000271  00000+0  89695-4 0  9998
2 43924  86.3967  69.1477 0002091  98.4529 261.6904 14.34215900363094
IRIDIUM 173             
1 43925U 19002D   25352.62576793  .00000197  00000+0  63387-4 0  9994
2 43925  86.3963  69.0492 0002075 101.8949 258.2479 14.34219898363071
IRIDIUM 169             
1 43926U 19002E   25352.54635759  .00000316  00000+0  96744-4 0  9990
2 43926  86.4225 100.7343 0002316 124.6926 235.4491 14.38609432364251
IRIDIUM 172             
1 43927U 19002F   25352.61942807  .00000277  00000+0  91819-4 0  9998
2 43927  86.3963  69.0591 0001969  93.7089 266.4332 14.34215755363086
IRIDIUM 175             
1 43928U 19002G   25352.56408408  .00000738  00000+0  11303-3 0  9998
2 43928  86.1498  11.1522 0003215  86.5676 273.5908 14.72245726372663
